     2.100          NAVIGATION                              RINEX VERSION / TYPE
fic2rin                                 10/31/2014 00:17:45 PGM / RUN BY / DATE
                                                            END OF HEADER
27 14 10 30 22  0  0.0  .262097455561D-04  .284217094304D-11  .000000000000D+00
     .130000000000D+02 -.797187500000D+02  .445447126089D-08  .137350314527D+01
    -.423565506935D-05  .153487827629D-02  .634230673313D-05  .515368312263D+04
     .424800000000D+06 -.931322574615D-08  .773923665964D+00 -.298023223877D-07
     .965031741034D+00  .259281250000D+03  .310898681652D+00 -.814176770873D-08
    -.342871424828D-10  .100000000000D+01  .181600000000D+04  .000000000000D+00
     .240000000000D+01  .000000000000D+00  .139698386192D-08  .130000000000D+02
     .417606000000D+06  .400000000000D+01
28 14 10 30 22  0  0.0  .394954811782D-03  .261479726760D-11  .000000000000D+00
     .990000000000D+02 -.106250000000D+01  .386016079119D-08  .229766363670D+01
    -.236555933952D-06  .194989796728D-01  .420212745667D-05  .515368223190D+04
     .424800000000D+06  .292435288429D-06 -.203178230320D+00 -.173225998878D-06
     .988027031406D+00  .308687500000D+03 -.170380423438D+01 -.769746348739D-08
     .767889128522D-10  .100000000000D+01  .181600000000D+04  .000000000000D+00
     .240000000000D+01  .000000000000D+00 -.111758708954D-07  .990000000000D+02
     .417606000000D+06  .400000000000D+01
29 14 10 30 22  0  0.0  .570073258132D-03  .238742359215D-11  .000000000000D+00
     .850000000000D+02 -.906875000000D+02  .429410743824D-08 -.205992618454D+01
    -.464357435703D-05  .111429532990D-02  .710785388947D-05  .515361338615D+04
     .424800000000D+06  .223517417908D-07  .829613775395D+00  .521540641785D-07
     .970963560781D+00  .247187500000D+03 -.841861410404D+00 -.810926635492D-08
    -.610739725475D-10  .100000000000D+01  .181600000000D+04  .000000000000D+00
     .240000000000D+01  .000000000000D+00 -.977888703346D-08  .850000000000D+02
     .417606000000D+06  .400000000000D+01
31 14 10 30 22  0  0.0  .329793896526D-03 -.568434188608D-12  .000000000000D+00
     .600000000000D+01  .491875000000D+02  .411017120513D-08 -.132685825978D+01
     .254437327385D-05  .816805311479D-02  .915117561817D-05  .515365858841D+04
     .424800000000D+06 -.763684511185D-07 -.128579746135D+01 -.465661287308D-07
     .976911256115D+00  .215093750000D+03 -.623058882915D+00 -.797711799327D-08
     .242867259253D-10  .100000000000D+01  .181600000000D+04  .000000000000D+00
     .240000000000D+01  .000000000000D+00 -.135041773319D-07  .600000000000D+01
     .417606000000D+06  .400000000000D+01
32 14 10 30 22  0  0.0 -.305404420942D-03  .886757334229D-11  .000000000000D+00
     .780000000000D+02  .234375000000D+02  .526093342471D-08 -.818597746248D+00
     .119768083096D-05  .114209144376D-01  .658072531223D-05  .515362225914D+04
     .424800000000D+06  .104308128357D-06  .295509291822D+01 -.137835741043D-06
     .947672809234D+00  .245906250000D+03 -.486076051361D-01 -.846535261592D-08
     .222509268404D-09  .100000000000D+01  .181600000000D+04  .000000000000D+00
     .240000000000D+01  .000000000000D+00 -.325962901115D-08  .780000000000D+02
     .417606000000D+06  .400000000000D+01
17 14 10 30 21 59 44.0 -.134288333356D-03 -.261479726760D-11  .000000000000D+00
     .000000000000D+00 -.774687500000D+02  .432625163432D-08  .152170762349D+01
    -.404939055443D-05  .963665067684D-02  .765919685364D-05  .515366781235D+04
     .424784000000D+06 -.268220901489D-06  .820423187130D+00 -.353902578354D-07
     .970186065172D+00  .235781250000D+03 -.209062871691D+01 -.815212528303D-08
    -.389301930274D-10  .100000000000D+01  .181600000000D+04  .000000000000D+00
     .240000000000D+01  .000000000000D+00 -.107102096081D-07  .000000000000D+00
     .420186000000D+06  .400000000000D+01
15 14 10 30 21 59 44.0 -.211715232581D-03 -.227373675443D-11  .000000000000D+00
     .800000000000D+01  .103437500000D+02  .536843790270D-08  .701414192808D+00
     .700354576111D-06  .676032761112D-02  .731088221073D-05  .515379021645D+04
     .424784000000D+06  .633299350739D-07 -.240635221503D+01  .726431608200D-07
     .935352124873D+00  .220875000000D+03  .296453396977D+00 -.853499837408D-08
    -.493234830925D-09  .100000000000D+01  .181600000000D+04  .000000000000D+00
     .240000000000D+01  .000000000000D+00 -.102445483208D-07  .800000000000D+01
     .420696000000D+06  .400000000000D+01
15 14 10 30 23 59 44.0 -.211731530726D-03 -.227373675443D-11  .000000000000D+00
     .900000000000D+01  .131875000000D+02  .539558189050D-08  .175141448633D+01
     .862404704094D-06  .676076777745D-02  .789202749729D-05  .515379189110D+04
     .431984000000D+06 -.279396772385D-07 -.240641418131D+01  .208616256714D-06
     .935348855251D+00  .214906250000D+03  .296568639811D+00 -.850964017496D-08
    -.382515933324D-09  .100000000000D+01  .181600000000D+04  .000000000000D+00
     .240000000000D+01  .000000000000D+00 -.102445483208D-07  .900000000000D+01
     .424806000000D+06  .400000000000D+01
17 14 10 30 23 59 44.0 -.134306959808D-03 -.261479726760D-11  .000000000000D+00
     .800000000000D+01 -.760000000000D+02  .413945813933D-08  .257177630259D+01
    -.396743416786D-05  .963593018241D-02  .709109008312D-05  .515367024231D+04
     .431984000000D+06  .223517417908D-07  .820365501345D+00 -.132247805595D-06
     .970187266228D+00  .245312500000D+03 -.209051551338D+01 -.785568436364D-08
    -.135719938995D-10  .100000000000D+01  .181600000000D+04  .000000000000D+00
     .240000000000D+01  .000000000000D+00 -.107102096081D-07  .800000000000D+01
     .424806000000D+06  .400000000000D+01
 1 14 10 31  0  0  0.0 -.126538798213D-04  .454747350886D-12  .000000000000D+00
     .520000000000D+02 -.314062500000D+02  .448518682603D-08  .273027963339D+00
    -.159442424774D-05  .361555896234D-02  .100936740637D-04  .515367430878D+04
     .432000000000D+06  .782310962677D-07  .183007470054D+01  .465661287308D-07
     .961084112188D+00  .187062500000D+03  .443940485046D+00 -.798818988303D-08
     .214651798252D-09  .100000000000D+01  .181600000000D+04  .000000000000D+00
     .240000000000D+01  .000000000000D+00  .558793544769D-08  .520000000000D+02
     .424806000000D+06  .400000000000D+01
 2 14 10 31  0  0  0.0  .527260359377D-03  .216004991671D-11  .000000000000D+00
     .105000000000D+03 -.185937500000D+02  .501378027264D-08  .100101351319D+01
    -.102631747723D-05  .138789189514D-01  .103339552879D-04  .515370501900D+04
     .432000000000D+06 -.210478901863D-06  .179704460992D+01  .931322574615D-07
     .939647559567D+00  .170093750000D+03 -.237563017172D+01 -.839106380720D-08
     .739316509786D-10  .100000000000D+01  .181600000000D+04  .000000000000D+00
     .240000000000D+01  .000000000000D+00 -.204890966415D-07  .105000000000D+03
     .424806000000D+06  .400000000000D+01
 4 14 10 31  0  0  0.0 -.229477882385D-05 -.568434188608D-12  .000000000000D+00
     .430000000000D+02 -.311875000000D+02  .508521181948D-08 -.152611050806D+00
    -.159628689289D-05  .112222512253D-01  .997446477413D-05  .515199598503D+04
     .432000000000D+06 -.279396772385D-07  .181264507176D+01  .160187482834D-06
     .938667012392D+00  .180843750000D+03  .109172234118D+01 -.843320841984D-08
     .229652423088D-09  .100000000000D+01  .181600000000D+04  .000000000000D+00
     .240000000000D+01  .000000000000D+00 -.651925802231D-08  .430000000000D+02
     .424806000000D+06  .400000000000D+01
 5 14 10 31  0  0  0.0 -.323581974953D-03  .432009983342D-11  .000000000000D+00
     .450000000000D+02  .258125000000D+02  .519057335107D-08 -.294505970524D+01
     .133179128170D-05  .393727037590D-02  .733882188797D-05  .515370547295D+04
     .432000000000D+06 -.521540641785D-07  .286622057469D+01 -.502914190292D-07
     .947166471343D+00  .233718750000D+03  .378788430676D+00 -.829284543030D-08
     .151434879299D-09  .100000000000D+01  .181600000000D+04  .000000000000D+00
     .240000000000D+01  .000000000000D+00 -.107102096081D-07  .450000000000D+02
     .424806000000D+06  .400000000000D+01
 6 14 10 31  0  0  0.0  .455789268017D-05  .409272615798D-11  .000000000000D+00
     .880000000000D+02 -.183437500000D+02  .443982779379D-08 -.297771053289D+01
    -.998377799988D-06  .592697411776D-03  .101625919342D-04  .515363061714D+04
     .432000000000D+06 -.204890966415D-07  .182151886950D+01 -.242143869400D-07
     .960995943578D+00  .178937500000D+03  .218149294044D+01 -.796568894578D-08
     .226438003480D-09  .100000000000D+01  .181600000000D+04  .000000000000D+00
     .240000000000D+01  .000000000000D+00  .465661287308D-08  .880000000000D+02
     .424806000000D+06  .400000000000D+01
 7 14 10 31  0  0  0.0  .407752115279D-03  .386535248253D-11  .000000000000D+00
     .360000000000D+02  .452187500000D+02  .422874757288D-08 -.242039253472D+00
     .226870179176D-05  .800107792020D-02  .840239226818D-05  .515361206818D+04
     .432000000000D+06  .745058059692D-07 -.129269225862D+01  .689178705215D-07
     .971996802265D+00  .223312500000D+03 -.276093931982D+01 -.808997983728D-08
    -.144291724615D-09  .100000000000D+01  .181600000000D+04  .000000000000D+00
     .240000000000D+01  .000000000000D+00 -.111758708954D-07  .360000000000D+02
     .424806000000D+06  .400000000000D+01
 8 14 10 31  0  0  0.0  .161272473633D-04  .113686837722D-12  .000000000000D+00
     .640000000000D+02  .408125000000D+02  .384337437768D-08  .284870102326D+00
     .225938856602D-05  .147248826688D-01  .852532684803D-05  .515218174553D+04
     .432000000000D+06  .132247805595D-06 -.118976771211D+01  .188127160072D-06
     .995481721078D+00  .233468750000D+03 -.269435179756D+01 -.795390274055D-08
    -.116433421348D-09  .100000000000D+01  .181600000000D+04  .000000000000D+00
     .240000000000D+01  .630000000000D+02 -.465661287308D-08  .640000000000D+02
     .424806000000D+06  .400000000000D+01
